{
  "type": "FeatureCollection",
  "features": [
    {
      "type": "Feature",
      "properties": {
        "norad_id": 30848,
        "name": "FENGYUN 1C DEB",
        "group": "fengyun-1c-debris",
        "lat": -73.71680202442764,
        "lon": -149.89241995419565,
        "alt_km": 770.6596945391511,
        "timestamp": "2025-12-08T08:59:01.044840+00:00",
        "meta_object_name": "FENGYUN 1C DEB",
        "meta_object_id": "1999-025AWJ",
        "meta_epoch": "2025-12-07T11:34:26.166720",
        "meta_mean_motion": 14.34434206,
        "meta_eccentricity": 0.0044012,
        "meta_inclination": 99.0594,
        "meta_ra_of_asc_node": 176.0653,
        "meta_arg_of_pericenter": 351.0025,
        "meta_mean_anomaly": 9.0365,
        "meta_ephemeris_type": 0,
        "meta_classification_type": "U",
        "meta_norad_cat_id": 30848,
        "meta_element_set_no": 999,
        "meta_rev_at_epoch": 97231,
        "meta_bstar": 0.001944314,
        "meta_mean_motion_dot": 5.491e-05,
        "meta_mean_motion_ddot": 0,
        "tle_line1": "1 30848U 99025AWJ 25341.48224730  .00005491  00000+0  19443-2 0  9994",
        "tle_line2": "2 30848  99.0594 176.0653 0044012 351.0025   9.0365 14.34434206972312"
      },
      "geometry": {
        "type": "Point",
        "coordinates": [
          -149.89241995419565,
          -73.71680202442764
        ]
      }
    },
    {
      "type": "Feature",
      "properties": {
        "norad_id": 30849,
        "name": "FENGYUN 1C DEB",
        "group": "fengyun-1c-debris",
        "lat": -40.73770758501,
        "lon": -145.602609253327,
        "alt_km": 867.9909931592974,
        "timestamp": "2025-12-08T08:59:01.044850+00:00",
        "meta_object_name": "FENGYUN 1C DEB",
        "meta_object_id": "1999-025AWK",
        "meta_epoch": "2025-12-07T22:37:18.490368",
        "meta_mean_motion": 14.18818524,
        "meta_eccentricity": 0.00482118,
        "meta_inclination": 99.0474,
        "meta_ra_of_asc_node": 41.8447,
        "meta_arg_of_pericenter": 20.3402,
        "meta_mean_anomaly": 157.1329,
        "meta_ephemeris_type": 0,
        "meta_classification_type": "U",
        "meta_norad_cat_id": 30849,
        "meta_element_set_no": 999,
        "meta_rev_at_epoch": 96304,
        "meta_bstar": 0.0017469434,
        "meta_mean_motion_dot": 3.631e-05,
        "meta_mean_motion_ddot": 0,
        "tle_line1": "1 30849U 99025AWK 25341.94257512  .00003631  00000+0  17469-2 0  9990",
        "tle_line2": "2 30849  99.0474  41.8447 0048211  20.3402 157.1329 14.18818524963046"
      },
      "geometry": {
        "type": "Point",
        "coordinates": [
          -145.602609253327,
          -40.73770758501
        ]
      }
    },
    {
      "type": "Feature",
      "properties": {
        "norad_id": 30850,
        "name": "FENGYUN 1C DEB",
        "group": "fengyun-1c-debris",
        "lat": -12.392467121678616,
        "lon": 26.26283855026161,
        "alt_km": 767.2677359029594,
        "timestamp": "2025-12-08T08:59:01.044860+00:00",
        "meta_object_name": "FENGYUN 1C DEB",
        "meta_object_id": "1999-025AWL",
        "meta_epoch": "2025-12-07T02:16:58.239264",
        "meta_mean_motion": 14.16220415,
        "meta_eccentricity": 0.01096895,
        "meta_inclination": 98.3943,
        "meta_ra_of_asc_node": 206.9158,
        "meta_arg_of_pericenter": 214.4492,
        "meta_mean_anomaly": 300.1485,
        "meta_ephemeris_type": 0,
        "meta_classification_type": "U",
        "meta_norad_cat_id": 30850,
        "meta_element_set_no": 999,
        "meta_rev_at_epoch": 95718,
        "meta_bstar": 0.0033430064,
        "meta_mean_motion_dot": 6.984e-05,
        "meta_mean_motion_ddot": 0,
        "tle_line1": "1 30850U 99025AWL 25341.09511851  .00006984  00000+0  33430-2 0  9997",
        "tle_line2": "2 30850  98.3943 206.9158 0109689 214.4492 300.1485 14.16220415957181"
      },
      "geometry": {
        "type": "Point",
        "coordinates": [
          26.26283855026161,
          -12.392467121678616
        ]
      }
    },
    {
      "type": "Feature",
      "properties": {
        "norad_id": 30852,
        "name": "FENGYUN 1C DEB",
        "group": "fengyun-1c-debris",
        "lat": -81.12987571719528,
        "lon": 80.32132838931044,
        "alt_km": 828.9666768326069,
        "timestamp": "2025-12-08T08:59:01.044871+00:00",
        "meta_object_name": "FENGYUN 1C DEB",
        "meta_object_id": "1999-025AWN",
        "meta_epoch": "2025-12-07T07:51:35.304480",
        "meta_mean_motion": 14.10271043,
        "meta_eccentricity": 0.00557333,
        "meta_inclination": 98.7339,
        "meta_ra_of_asc_node": 359.234,
        "meta_arg_of_pericenter": 250.17,
        "meta_mean_anomaly": 109.3458,
        "meta_ephemeris_type": 0,
        "meta_classification_type": "U",
        "meta_norad_cat_id": 30852,
        "meta_element_set_no": 999,
        "meta_rev_at_epoch": 96306,
        "meta_bstar": 0.0008305375,
        "meta_mean_motion_dot": 1.451e-05,
        "meta_mean_motion_ddot": 0,
        "tle_line1": "1 30852U 99025AWN 25341.32749195  .00001451  00000+0  83054-3 0  9991",
        "tle_line2": "2 30852  98.7339 359.2340 0055733 250.1700 109.3458 14.10271043963060"
      },
      "geometry": {
        "type": "Point",
        "coordinates": [
          80.32132838931044,
          -81.12987571719528
        ]
      }
    },
    {
      "type": "Feature",
      "properties": {
        "norad_id": 30856,
        "name": "FENGYUN 1C DEB",
        "group": "fengyun-1c-debris",
        "lat": -40.9839709531429,
        "lon": -19.89179702608703,
        "alt_km": 690.7953359555031,
        "timestamp": "2025-12-08T08:59:01.044881+00:00",
        "meta_object_name": "FENGYUN 1C DEB",
        "meta_object_id": "1999-025AWS",
        "meta_epoch": "2025-12-06T00:11:43.147392",
        "meta_mean_motion": 14.45786274,
        "meta_eccentricity": 0.0089241,
        "meta_inclination": 98.1982,
        "meta_ra_of_asc_node": 165.0162,
        "meta_arg_of_pericenter": 259.2143,
        "meta_mean_anomaly": 253.7897,
        "meta_ephemeris_type": 0,
        "meta_classification_type": "U",
        "meta_norad_cat_id": 30856,
        "meta_element_set_no": 999,
        "meta_rev_at_epoch": 96428,
        "meta_bstar": 0.0075622798,
        "meta_mean_motion_dot": 0.00028236,
        "meta_mean_motion_ddot": 0,
        "tle_line1": "1 30856U 99025AWS 25340.00813828  .00028236  00000+0  75623-2 0  9996",
        "tle_line2": "2 30856  98.1982 165.0162 0089241 259.2143 253.7897 14.45786274964280"
      },
      "geometry": {
        "type": "Point",
        "coordinates": [
          -19.89179702608703,
          -40.9839709531429
        ]
      }
    },
    {
      "type": "Feature",
      "properties": {
        "norad_id": 30857,
        "name": "FENGYUN 1C DEB",
        "group": "fengyun-1c-debris",
        "lat": -29.41867997997624,
        "lon": -23.041235653459875,
        "alt_km": 699.2623897003823,
        "timestamp": "2025-12-08T08:59:01.044891+00:00",
        "meta_object_name": "FENGYUN 1C DEB",
        "meta_object_id": "1999-025AWT",
        "meta_epoch": "2025-12-06T10:47:15.574848",
        "meta_mean_motion": 14.51149707,
        "meta_eccentricity": 0.00425376,
        "meta_inclination": 98.975,
        "meta_ra_of_asc_node": 329.7929,
        "meta_arg_of_pericenter": 314.165,
        "meta_mean_anomaly": 45.6049,
        "meta_ephemeris_type": 0,
        "meta_classification_type": "U",
        "meta_norad_cat_id": 30857,
        "meta_element_set_no": 999,
        "meta_rev_at_epoch": 96632,
        "meta_bstar": 0.0099836783,
        "meta_mean_motion_dot": 0.00040262,
        "meta_mean_motion_ddot": 0,
        "tle_line1": "1 30857U 99025AWT 25340.44948582  .00040262  00000+0  99837-2 0  9997",
        "tle_line2": "2 30857  98.9750 329.7929 0042537 314.1650  45.6049 14.51149707966328"
      },
      "geometry": {
        "type": "Point",
        "coordinates": [
          -23.041235653459875,
          -29.41867997997624
        ]
      }
    },
    {
      "type": "Feature",
      "properties": {
        "norad_id": 30858,
        "name": "FENGYUN 1C DEB",
        "group": "fengyun-1c-debris",
        "lat": 41.00756748813528,
        "lon": -132.2117522681902,
        "alt_km": 808.2653966779599,
        "timestamp": "2025-12-08T08:59:01.044901+00:00",
        "meta_object_name": "FENGYUN 1C DEB",
        "meta_object_id": "1999-025AWU",
        "meta_epoch": "2025-12-07T23:00:39.453408",
        "meta_mean_motion": 14.1776893,
        "meta_eccentricity": 0.00308172,
        "meta_inclination": 98.7997,
        "meta_ra_of_asc_node": 39.636,
        "meta_arg_of_pericenter": 123.09,
        "meta_mean_anomaly": 55.4725,
        "meta_ephemeris_type": 0,
        "meta_classification_type": "U",
        "meta_norad_cat_id": 30858,
        "meta_element_set_no": 999,
        "meta_rev_at_epoch": 96912,
        "meta_bstar": 0.00059982581,
        "meta_mean_motion_dot": 1.185e-05,
        "meta_mean_motion_ddot": 0,
        "tle_line1": "1 30858U 99025AWU 25341.95878997  .00001185  00000+0  59983-3 0  9997",
        "tle_line2": "2 30858  98.7997  39.6360 0030817 123.0900  55.4725 14.17768930969127"
      },
      "geometry": {
        "type": "Point",
        "coordinates": [
          -132.2117522681902,
          41.00756748813528
        ]
      }
    }
  ]
}